start=new Date('2022-07-23T00:00:00.000Z').valueOf();
sats=[{"PERIOD":"91.704","INCLINATION":"97.6573","SEMIMAJOR_AXIS":"6736.239","ARG_OF_PERICENTER":"76.7762","REF_FRAME":"TEME","OBJECT_TYPE":"PAYLOAD","TLE_LINE2":"2 53049  97.6573  22.5753 0001185  76.7762 249.2487 15.70277998  1309","TLE_LINE1":"1 53049U 22077G   22203.91667824  .00055582  00000-0  45673-3 0  9994","MEAN_MOTION_DDOT":"0.0000000000000","EPHEMERIS_TYPE":"0","NORAD_CAT_ID":"53049","MEAN_MOTION_DOT":"0.00055582","CENTER_NAME":"EARTH","COUNTRY_CODE":"US","BSTAR":"0.00045673000000","RCS_SIZE":null,"MEAN_ANOMALY":"249.2487","MEAN_MOTION":"15.70277998","SITE":"AFWTR","TIME_SYSTEM":"UTC","PERIAPSIS":"357.306","APOAPSIS":"358.902","FILE":"3519932","CLASSIFICATION_TYPE":"U","ELEMENT_SET_NO":"999","ECCENTRICITY":"0.00011850","GP_ID":"208673563","MEAN_ELEMENT_THEORY":"SGP4","EPOCH":"2022-07-22T22:00:00.999936","REV_AT_EPOCH":"130","RA_OF_ASC_NODE":"22.5753","OBJECT_ID":"2022-077G","DECAY_DATE":null,"OBJECT_NAME":"STARLINK-4345","LAUNCH_DATE":"2022-07-11"},{"OBJECT_NAME":"STARLINK-4343","LAUNCH_DATE":"2022-07-11","DECAY_DATE":null,"RA_OF_ASC_NODE":"22.5737","OBJECT_ID":"2022-077H","EPOCH":"2022-07-22T22:00:00.999936","REV_AT_EPOCH":"130","MEAN_ELEMENT_THEORY":"SGP4","ELEMENT_SET_NO":"999","CLASSIFICATION_TYPE":"U","ECCENTRICITY":"0.00011860","GP_ID":"208673448","APOAPSIS":"358.802","FILE":"3519932","PERIAPSIS":"357.204","SITE":"AFWTR","TIME_SYSTEM":"UTC","MEAN_MOTION":"15.70313290","RCS_SIZE":null,"MEAN_ANOMALY":"242.4650","COUNTRY_CODE":"US","BSTAR":"0.00019643000000","MEAN_MOTION_DOT":"0.00023774","CENTER_NAME":"EARTH","EPHEMERIS_TYPE":"0","NORAD_CAT_ID":"53050","MEAN_MOTION_DDOT":"0.0000000000000","OBJECT_TYPE":"PAYLOAD","TLE_LINE1":"1 53050U 22077H   22203.91667824  .00023774  00000-0  19643-3 0  9992","TLE_LINE2":"2 53050  97.6578  22.5737 0001186  82.3740 242.4650 15.70313290  1301","ARG_OF_PERICENTER":"82.3740","REF_FRAME":"TEME","SEMIMAJOR_AXIS":"6736.138","PERIOD":"91.701","INCLINATION":"97.6578"},{"SEMIMAJOR_AXIS":"6736.134","PERIOD":"91.701","INCLINATION":"97.6578","REF_FRAME":"TEME","ARG_OF_PERICENTER":"80.8461","TLE_LINE2":"2 53051  97.6578  22.5760 0001239  80.8461 246.4055 15.70314676  1302","TLE_LINE1":"1 53051U 22077J   22203.91667824 -.00023025  00000-0 -18915-3 0  9995","OBJECT_TYPE":"PAYLOAD","NORAD_CAT_ID":"53051","EPHEMERIS_TYPE":"0","MEAN_MOTION_DDOT":"0.0000000000000","BSTAR":"-0.00018915000000","COUNTRY_CODE":"US","CENTER_NAME":"EARTH","MEAN_MOTION_DOT":"-0.00023025","MEAN_ANOMALY":"246.4055","RCS_SIZE":null,"MEAN_MOTION":"15.70314676","TIME_SYSTEM":"UTC","SITE":"AFWTR","PERIAPSIS":"357.164","APOAPSIS":"358.834","FILE":"3519932","ECCENTRICITY":"0.00012390","GP_ID":"208673756","CLASSIFICATION_TYPE":"U","ELEMENT_SET_NO":"999","MEAN_ELEMENT_THEORY":"SGP4","RA_OF_ASC_NODE":"22.5760","OBJECT_ID":"2022-077J","EPOCH":"2022-07-22T22:00:00.999936","REV_AT_EPOCH":"130","DECAY_DATE":null,"OBJECT_NAME":"STARLINK-4336","LAUNCH_DATE":"2022-07-11"},{"OBJECT_NAME":"STARLINK-4341","LAUNCH_DATE":"2022-07-11","DECAY_DATE":null,"OBJECT_ID":"2022-077K","RA_OF_ASC_NODE":"22.5739","EPOCH":"2022-07-22T22:00:00.999936","REV_AT_EPOCH":"130","MEAN_ELEMENT_THEORY":"SGP4","GP_ID":"208672967","ECCENTRICITY":"0.00012500","ELEMENT_SET_NO":"999","CLASSIFICATION_TYPE":"U","APOAPSIS":"358.680","FILE":"3519932","PERIAPSIS":"356.996","TIME_SYSTEM":"UTC","SITE":"AFWTR","MEAN_MOTION":"15.70371015","MEAN_ANOMALY":"243.0868","RCS_SIZE":null,"BSTAR":"-0.00014389000000","COUNTRY_CODE":"US","MEAN_MOTION_DOT":"-0.00017599","CENTER_NAME":"EARTH","NORAD_CAT_ID":"53052","EPHEMERIS_TYPE":"0","MEAN_MOTION_DDOT":"0.0000000000000","TLE_LINE1":"1 53052U 22077K   22203.91667824 -.00017599  00000-0 -14389-3 0  9996","TLE_LINE2":"2 53052  97.6560  22.5739 0001250  82.2042 243.0868 15.70371015  1309","OBJECT_TYPE":"PAYLOAD","ARG_OF_PERICENTER":"82.2042","REF_FRAME":"TEME","SEMIMAJOR_AXIS":"6735.973","PERIOD":"91.698","INCLINATION":"97.6560"},{"RCS_SIZE":null,"MEAN_ANOMALY":"245.6825","MEAN_MOTION":"15.70294177","MEAN_MOTION_DDOT":"0.0000000000000","EPHEMERIS_TYPE":"0","NORAD_CAT_ID":"53053","MEAN_MOTION_DOT":"0.00056693","CENTER_NAME":"EARTH","COUNTRY_CODE":"US","BSTAR":"0.00046547000000","OBJECT_TYPE":"PAYLOAD","TLE_LINE2":"2 53053  97.6573  22.5770 0001187  82.7607 245.6825 15.70294177  1304","TLE_LINE1":"1 53053U 22077L   22203.91667824  .00056693  00000-0  46547-3 0  9994","PERIOD":"91.703","INCLINATION":"97.6573","SEMIMAJOR_AXIS":"6736.193","REF_FRAME":"TEME","ARG_OF_PERICENTER":"82.7607","DECAY_DATE":null,"OBJECT_NAME":"STARLINK-4337","LAUNCH_DATE":"2022-07-11","MEAN_ELEMENT_THEORY":"SGP4","REV_AT_EPOCH":"130","EPOCH":"2022-07-22T22:00:00.999936","OBJECT_ID":"2022-077L","RA_OF_ASC_NODE":"22.5770","APOAPSIS":"358.857","FILE":"3519932","ELEMENT_SET_NO":"999","CLASSIFICATION_TYPE":"U","GP_ID":"208673197","ECCENTRICITY":"0.00011870","SITE":"AFWTR","TIME_SYSTEM":"UTC","PERIAPSIS":"357.258"},{"SITE":"AFWTR","TIME_SYSTEM":"UTC","PERIAPSIS":"357.124","APOAPSIS":"359.084","FILE":"3519932","CLASSIFICATION_TYPE":"U","ELEMENT_SET_NO":"999","GP_ID":"208673082","ECCENTRICITY":"0.00014550","MEAN_ELEMENT_THEORY":"SGP4","REV_AT_EPOCH":"130","EPOCH":"2022-07-22T22:00:00.999936","OBJECT_ID":"2022-077M","RA_OF_ASC_NODE":"22.5752","DECAY_DATE":null,"LAUNCH_DATE":"2022-07-11","OBJECT_NAME":"STARLINK-4339","PERIOD":"91.704","INCLINATION":"97.6578","SEMIMAJOR_AXIS":"6736.239","ARG_OF_PERICENTER":"82.3258","REF_FRAME":"TEME","OBJECT_TYPE":"PAYLOAD","TLE_LINE1":"1 53054U 22077M   22203.91667824  .00031909  00000-0  26340-3 0  9997","TLE_LINE2":"2 53054  97.6578  22.5752 0001455  82.3258 244.3650 15.70278073  1305","MEAN_MOTION_DDOT":"0.0000000000000","EPHEMERIS_TYPE":"0","NORAD_CAT_ID":"53054","MEAN_MOTION_DOT":"0.00031909","CENTER_NAME":"EARTH","COUNTRY_CODE":"US","BSTAR":"0.00026340000000","RCS_SIZE":null,"MEAN_ANOMALY":"244.3650","MEAN_MOTION":"15.70278073"},{"MEAN_MOTION":"15.70239403","RCS_SIZE":null,"MEAN_ANOMALY":"254.0225","CENTER_NAME":"EARTH","MEAN_MOTION_DOT":"0.00000089","COUNTRY_CODE":"US","BSTAR":"0.00000182710000","MEAN_MOTION_DDOT":"0.0000000000000","EPHEMERIS_TYPE":"0","NORAD_CAT_ID":"53055","OBJECT_TYPE":"PAYLOAD","TLE_LINE1":"1 53055U 22077N   22203.91667824  .00000089  00000-0  18271-5 0  9999","TLE_LINE2":"2 53055  97.6571  22.5767 0001337  75.5340 254.0225 15.70239403  1300","ARG_OF_PERICENTER":"75.5340","REF_FRAME":"TEME","INCLINATION":"97.6571","PERIOD":"91.706","SEMIMAJOR_AXIS":"6736.349","LAUNCH_DATE":"2022-07-11","OBJECT_NAME":"STARLINK-4338","DECAY_DATE":null,"REV_AT_EPOCH":"130","EPOCH":"2022-07-22T22:00:00.999936","OBJECT_ID":"2022-077N","RA_OF_ASC_NODE":"22.5767","MEAN_ELEMENT_THEORY":"SGP4","CLASSIFICATION_TYPE":"U","ELEMENT_SET_NO":"999","GP_ID":"208673662","ECCENTRICITY":"0.00013370","APOAPSIS":"359.115","FILE":"3519932","PERIAPSIS":"357.314","SITE":"AFWTR","TIME_SYSTEM":"UTC"},{"TIME_SYSTEM":"UTC","SITE":"AFWTR","PERIAPSIS":"357.244","APOAPSIS":"358.971","FILE":"3519932","ECCENTRICITY":"0.00012820","GP_ID":"208673333","CLASSIFICATION_TYPE":"U","ELEMENT_SET_NO":"999","MEAN_ELEMENT_THEORY":"SGP4","REV_AT_EPOCH":"130","EPOCH":"2022-07-22T22:00:00.999936","RA_OF_ASC_NODE":"22.5756","OBJECT_ID":"2022-077P","DECAY_DATE":null,"LAUNCH_DATE":"2022-07-11","OBJECT_NAME":"STARLINK-4314","INCLINATION":"97.6576","PERIOD":"91.704","SEMIMAJOR_AXIS":"6736.242","ARG_OF_PERICENTER":"85.9297","REF_FRAME":"TEME","TLE_LINE1":"1 53056U 22077P   22203.91667824  .00051766  00000-0  42566-3 0  9990","TLE_LINE2":"2 53056  97.6576  22.5756 0001282  85.9297 241.9433 15.70276814  1302","OBJECT_TYPE":"PAYLOAD","MEAN_MOTION_DDOT":"0.0000000000000","NORAD_CAT_ID":"53056","EPHEMERIS_TYPE":"0","CENTER_NAME":"EARTH","MEAN_MOTION_DOT":"0.00051766","BSTAR":"0.00042566000000","COUNTRY_CODE":"US","MEAN_ANOMALY":"241.9433","RCS_SIZE":null,"MEAN_MOTION":"15.70276814"},{"TLE_LINE2":"2 53057  97.6571  22.5772 0001471  88.5494 242.2427 15.70319071  1304","TLE_LINE1":"1 53057U 22077Q   22203.91667824  .00002063  00000-0  18075-4 0  9996","OBJECT_TYPE":"PAYLOAD","ARG_OF_PERICENTER":"88.5494","REF_FRAME":"TEME","PERIOD":"91.701","INCLINATION":"97.6571","SEMIMAJOR_AXIS":"6736.121","MEAN_MOTION":"15.70319071","MEAN_ANOMALY":"242.2427","RCS_SIZE":null,"MEAN_MOTION_DOT":"0.00002063","CENTER_NAME":"EARTH","BSTAR":"0.00001807500000","COUNTRY_CODE":"US","MEAN_MOTION_DDOT":"0.0000000000000","NORAD_CAT_ID":"53057","EPHEMERIS_TYPE":"0","GP_ID":"208673564","ECCENTRICITY":"0.00014710","ELEMENT_SET_NO":"999","CLASSIFICATION_TYPE":"U","FILE":"3519932","APOAPSIS":"358.977","PERIAPSIS":"356.996","TIME_SYSTEM":"UTC","SITE":"AFWTR","OBJECT_NAME":"STARLINK-4252","LAUNCH_DATE":"2022-07-11","DECAY_DATE":null,"EPOCH":"2022-07-22T22:00:00.999936","REV_AT_EPOCH":"130","OBJECT_ID":"2022-077Q","RA_OF_ASC_NODE":"22.5772","MEAN_ELEMENT_THEORY":"SGP4"},{"MEAN_ANOMALY":"254.6805","RCS_SIZE":null,"MEAN_MOTION":"15.70304237","MEAN_MOTION_DDOT":"0.0000000000000","NORAD_CAT_ID":"53058","EPHEMERIS_TYPE":"0","MEAN_MOTION_DOT":"0.00059481","CENTER_NAME":"EARTH","BSTAR":"0.00048793000000","COUNTRY_CODE":"US","TLE_LINE2":"2 53058  97.6568  22.5758 0001435  74.3097 254.6805 15.70304237  1302","TLE_LINE1":"1 53058U 22077R   22203.91667824  .00059481  00000-0  48793-3 0  9992","OBJECT_TYPE":"PAYLOAD","INCLINATION":"97.6568","PERIOD":"91.702","SEMIMAJOR_AXIS":"6736.164","REF_FRAME":"TEME","ARG_OF_PERICENTER":"74.3097","DECAY_DATE":null,"LAUNCH_DATE":"2022-07-11","OBJECT_NAME":"STARLINK-4317","MEAN_ELEMENT_THEORY":"SGP4","REV_AT_EPOCH":"130","EPOCH":"2022-07-22T22:00:00.999936","RA_OF_ASC_NODE":"22.5758","OBJECT_ID":"2022-077R","FILE":"3519932","APOAPSIS":"358.995","ECCENTRICITY":"0.00014350","GP_ID":"208673449","ELEMENT_SET_NO":"999","CLASSIFICATION_TYPE":"U","TIME_SYSTEM":"UTC","SITE":"AFWTR","PERIAPSIS":"357.062"}];
